{"type": "FeatureCollection", "features": [ {"type": "Feature", "properties": {"norad_id": 39574, "name": "GPM-CORE", "group": "resource", "lat": 54.50052498221866, "lon": 18.32272324777137, "alt_km": 430.84701062864315, "timestamp": "2025-12-04T19:33:59.288387+00:00", "meta": {"OBJECT_NAME": "GPM-CORE", "OBJECT_ID": "2014-009C", "EPOCH": "2025-12-04T06:38:22.459776", "MEAN_MOTION": 15.45222292, "ECCENTRICITY": 0.00105203, "INCLINATION": 64.9753, "RA_OF_ASC_NODE": 241.0435, "ARG_OF_PERICENTER": 269.1709, "MEAN_ANOMALY": 90.8227, "EPHEMERIS_TYPE": 0, "CLASSIFICATION_TYPE": "U", "NORAD_CAT_ID": 39574, "ELEMENT_SET_NO": 999, "REV_AT_EPOCH": 66770, "BSTAR": 0.00066142485, "MEAN_MOTION_DOT": 0.00031554, "MEAN_MOTION_DDOT": 0}, "tle": {"line1": "1 39574U 14009C   25338.27664884  .00031554  00000+0  66142-3 0  9997", "line2": "2 39574  64.9753 241.0435 0010520 269.1709  90.8227 15.45222292667703"}}, "geometry": {"type": "Point", "coordinates": [18.32272324777137, 54.50052498221866]}}, {"type": "Feature", "properties": {"norad_id": 39634, "name": "SENTINEL-1A", "group": "resource", "lat": -76.77356551950177, "lon": 21.910623037835673, "alt_km": 703.9361293282736, "timestamp": "2025-12-04T19:33:59.288396+00:00", "meta": {"OBJECT_NAME": "SENTINEL-1A", "OBJECT_ID": "2014-016A", "EPOCH": "2025-12-04T06:45:54.148608", "MEAN_MOTION": 14.59201381, "ECCENTRICITY": 0.00012431, "INCLINATION": 98.1805, "RA_OF_ASC_NODE": 343.6482, "ARG_OF_PERICENTER": 89.228, "MEAN_ANOMALY": 270.9063, "EPHEMERIS_TYPE": 0, "CLASSIFICATION_TYPE": "U", "NORAD_CAT_ID": 39634, "ELEMENT_SET_NO": 999, "REV_AT_EPOCH": 62159, "BSTAR": 4.1367835e-05, "MEAN_MOTION_DOT": 1.49e-06, "MEAN_MOTION_DDOT": 0}, "tle": {"line1": "1 39634U 14016A   25338.28187672  .00000149  00000+0  41368-4 0  9998", "line2": "2 39634  98.1805 343.6482 0001243  89.2280 270.9063 14.59201381621591"}}, "geometry": {"type": "Point", "coordinates": [21.910623037835673, -76.77356551950177]}}, {"type": "Feature", "properties": {"norad_id": 39731, "name": "KAZEOSAT 1", "group": "resource", "lat": 22.81563016558382, "lon": 47.3602199206958, "alt_km": 751.1036763034281, "timestamp": "2025-12-04T19:33:59.288405+00:00", "meta": {"OBJECT_NAME": "KAZEOSAT 1", "OBJECT_ID": "2014-024A", "EPOCH": "2025-12-04T07:48:10.760256", "MEAN_MOTION": 14.42055281, "ECCENTRICITY": 0.0001059, "INCLINATION": 98.3444, "RA_OF_ASC_NODE": 50.421, "ARG_OF_PERICENTER": 99.1481, "MEAN_ANOMALY": 260.9829, "EPHEMERIS_TYPE": 0, "CLASSIFICATION_TYPE": "U", "NORAD_CAT_ID": 39731, "ELEMENT_SET_NO": 999, "REV_AT_EPOCH": 61047, "BSTAR": 0.00017563986, "MEAN_MOTION_DOT": 5.34e-06, "MEAN_MOTION_DDOT": 0}, "tle": {"line1": "1 39731U 14024A   25338.32512454  .00000534  00000+0  17564-3 0  9998", "line2": "2 39731  98.3444  50.4210 0001059  99.1481 260.9829 14.42055281610472"}}, "geometry": {"type": "Point", "coordinates": [47.3602199206958, 22.81563016558382]}}, {"type": "Feature", "properties": {"norad_id": 39766, "name": "ALOS-2", "group": "resource", "lat": -75.61013641479471, "lon": 106.65215316103665, "alt_km": 639.4033992053337, "timestamp": "2025-12-04T19:33:59.288414+00:00", "meta": {"OBJECT_NAME": "ALOS-2", "OBJECT_ID": "2014-029A", "EPOCH": "2025-12-04T06:55:58.305792", "MEAN_MOTION": 14.79459487, "ECCENTRICITY": 0.00015195, "INCLINATION": 97.9237, "RA_OF_ASC_NODE": 73.2557, "ARG_OF_PERICENTER": 108.0155, "MEAN_ANOMALY": 252.1222, "EPHEMERIS_TYPE": 0, "CLASSIFICATION_TYPE": "U", "NORAD_CAT_ID": 39766, "ELEMENT_SET_NO": 999, "REV_AT_EPOCH": 62276, "BSTAR": 0.00067429619, "MEAN_MOTION_DOT": 4.986e-05, "MEAN_MOTION_DDOT": 0}, "tle": {"line1": "1 39766U 14029A   25338.28886928  .00004986  00000+0  67430-3 0  9998", "line2": "2 39766  97.9237  73.2557 0001519 108.0155 252.1222 14.79459487622762"}}, "geometry": {"type": "Point", "coordinates": [106.65215316103665, -75.61013641479471]}}, {"type": "Feature", "properties": {"norad_id": 40010, "name": "KAZEOSAT 2", "group": "resource", "lat": 29.81332739045255, "lon": 179.17930957839204, "alt_km": 616.2201010102408, "timestamp": "2025-12-04T19:33:59.288423+00:00", "meta": {"OBJECT_NAME": "KAZEOSAT 2", "OBJECT_ID": "2014-033A", "EPOCH": "2025-12-04T08:06:43.989696", "MEAN_MOTION": 14.85147125, "ECCENTRICITY": 0.00072715, "INCLINATION": 97.5511, "RA_OF_ASC_NODE": 183.0861, "ARG_OF_PERICENTER": 238.0473, "MEAN_ANOMALY": 122.0036, "EPHEMERIS_TYPE": 0, "CLASSIFICATION_TYPE": "U", "NORAD_CAT_ID": 40010, "ELEMENT_SET_NO": 999, "REV_AT_EPOCH": 62003, "BSTAR": 0.00018133053, "MEAN_MOTION_DOT": 1.502e-05, "MEAN_MOTION_DDOT": 0}, "tle": {"line1": "1 40010U 14033A   25338.33800914  .00001502  00000+0  18133-3 0  9991", "line2": "2 40010  97.5511 183.0861 0007271 238.0473 122.0036 14.85147125620039"}}, "geometry": {"type": "Point", "coordinates": [179.17930957839204, 29.81332739045255]}}, {"type": "Feature", "properties": {"norad_id": 40011, "name": "HODOYOSHI-4", "group": "resource", "lat": 51.64472170051501, "lon": 158.45229392278563, "alt_km": 616.9983435260947, "timestamp": "2025-12-04T19:33:59.288432+00:00", "meta": {"OBJECT_NAME": "HODOYOSHI-4", "OBJECT_ID": "2014-033B", "EPOCH": "2025-12-04T08:01:46.758144", "MEAN_MOTION": 14.87432741, "ECCENTRICITY": 0.00227057, "INCLINATION": 97.5412, "RA_OF_ASC_NODE": 167.6327, "ARG_OF_PERICENTER": 229.4312, "MEAN_ANOMALY": 130.4929, "EPHEMERIS_TYPE": 0, "CLASSIFICATION_TYPE": "U", "NORAD_CAT_ID": 40011, "ELEMENT_SET_NO": 999, "REV_AT_EPOCH": 61983, "BSTAR": 0.00047698607, "MEAN_MOTION_DOT": 4.286e-05, "MEAN_MOTION_DDOT": 0}, "tle": {"line1": "1 40011U 14033B   25338.33456896  .00004286  00000+0  47699-3 0  9999", "line2": "2 40011  97.5412 167.6327 0022705 229.4312 130.4929 14.87432741619833"}}, "geometry": {"type": "Point", "coordinates": [158.45229392278563, 51.64472170051501]}}, {"type": "Feature", "properties": {"norad_id": 40013, "name": "DEIMOS-2", "group": "resource", "lat": 52.502751928668566, "lon": -155.15562076758056, "alt_km": 583.4712017458678, "timestamp": "2025-12-04T19:33:59.288441+00:00", "meta": {"OBJECT_NAME": "DEIMOS-2", "OBJECT_ID": "2014-033D", "EPOCH": "2025-12-04T06:27:37.518336", "MEAN_MOTION": 14.92912913, "ECCENTRICITY": 8.588e-05, "INCLINATION": 97.6073, "RA_OF_ASC_NODE": 214.3481, "ARG_OF_PERICENTER": 89.4884, "MEAN_ANOMALY": 270.6434, "EPHEMERIS_TYPE": 0, "CLASSIFICATION_TYPE": "U", "NORAD_CAT_ID": 40013, "ELEMENT_SET_NO": 999, "REV_AT_EPOCH": 60863, "BSTAR": 0.00055384871, "MEAN_MOTION_DOT": 5.692e-05, "MEAN_MOTION_DDOT": 0}, "tle": {"line1": "1 40013U 14033D   25338.26918424  .00005692  00000+0  55385-3 0  9996", "line2": "2 40013  97.6073 214.3481 0000858  89.4884 270.6434 14.92912913608637"}}, "geometry": {"type": "Point", "coordinates": [-155.15562076758056, 52.502751928668566]}}, {"type": "Feature", "properties": {"norad_id": 40015, "name": "HODOYOSHI-3", "group": "resource", "lat": 53.3626602817758, "lon": 134.62508753364384, "alt_km": 626.0920888498413, "timestamp": "2025-12-04T19:33:59.288450+00:00", "meta": {"OBJECT_NAME": "HODOYOSHI-3", "OBJECT_ID": "2014-033F", "EPOCH": "2025-12-04T04:45:59.649984", "MEAN_MOTION": 14.84760634, "ECCENTRICITY": 0.00318413, "INCLINATION": 97.6193, "RA_OF_ASC_NODE": 144.4053, "ARG_OF_PERICENTER": 277.2082, "MEAN_ANOMALY": 82.5514, "EPHEMERIS_TYPE": 0, "CLASSIFICATION_TYPE": "U", "NORAD_CAT_ID": 40015, "ELEMENT_SET_NO": 999, "REV_AT_EPOCH": 61868, "BSTAR": 0.00044644205, "MEAN_MOTION_DOT": 3.768e-05, "MEAN_MOTION_DDOT": 0}, "tle": {"line1": "1 40015U 14033F   25338.19860706  .00003768  00000+0  44644-3 0  9997", "line2": "2 40015  97.6193 144.4053 0031841 277.2082  82.5514 14.84760634618680"}}, "geometry": {"type": "Point", "coordinates": [134.62508753364384, 53.3626602817758]}}, {"type": "Feature", "properties": {"norad_id": 40053, "name": "SPOT 7", "group": "resource", "lat": 75.78223263588353, "lon": -104.7666645634923, "alt_km": 682.5976821351624, "timestamp": "2025-12-04T19:33:59.288459+00:00", "meta": {"OBJECT_NAME": "SPOT 7", "OBJECT_ID": "2014-034A", "EPOCH": "2025-12-04T07:35:40.606944", "MEAN_MOTION": 14.60717726, "ECCENTRICITY": 0.00015246, "INCLINATION": 98.0918, "RA_OF_ASC_NODE": 40.5857, "ARG_OF_PERICENTER": 96.5151, "MEAN_ANOMALY": 263.6223, "EPHEMERIS_TYPE": 0, "CLASSIFICATION_TYPE": "U", "NORAD_CAT_ID": 40053, "ELEMENT_SET_NO": 999, "REV_AT_EPOCH": 60868, "BSTAR": 0.00025844536, "MEAN_MOTION_DOT": 1.214e-05, "MEAN_MOTION_DDOT": 0}, "tle": {"line1": "1 40053U 14034A   25338.31644221  .00001214  00000+0  25845-3 0  9992", "line2": "2 40053  98.0918  40.5857 0001524  96.5151 263.6223 14.60717726608680"}}, "geometry": {"type": "Point", "coordinates": [-104.7666645634923, 75.78223263588353]}}, {"type": "Feature", "properties": {"norad_id": 40072, "name": "SKYSAT-B", "group": "resource", "lat": -0.7786646957198647, "lon": -77.78201422416669, "alt_km": 613.351839277776, "timestamp": "2025-12-04T19:33:59.288468+00:00", "meta": {"OBJECT_NAME": "SKYSAT-B", "OBJECT_ID": "2014-037D", "EPOCH": "2025-12-04T06:39:09.740448", "MEAN_MOTION": 14.87278311, "ECCENTRICITY": 0.00054642, "INCLINATION": 98.3596, "RA_OF_ASC_NODE": 281.5372, "ARG_OF_PERICENTER": 176.1694, "MEAN_ANOMALY": 183.9563, "EPHEMERIS_TYPE": 0, "CLASSIFICATION_TYPE": "U", "NORAD_CAT_ID": 40072, "ELEMENT_SET_NO": 999, "REV_AT_EPOCH": 61698, "BSTAR": 0.00045252879, "MEAN_MOTION_DOT": 4.022e-05, "MEAN_MOTION_DDOT": 0}, "tle": {"line1": "1 40072U 14037D   25338.27719607  .00004022  00000+0  45253-3 0  9997", "line2": "2 40072  98.3596 281.5372 0005464 176.1694 183.9563 14.87278311616983"}}, "geometry": {"type": "Point", "coordinates": [-77.78201422416669, -0.7786646957198647]}}]}